{
    "links": {
        "self": "http://www.neowsapp.com/rest/v1/neo/3608727?api_key=iIulBulltgU6a56xZRHN4H3l9WmuAYTsLGpBGhQ2"
    },
    "id": "3608727",
    "neo_reference_id": "3608727",
    "name": "(2012 SX2)",
    "designation": "2012 SX2",
    "nasa_jpl_url": "http://ssd.jpl.nasa.gov/sbdb.cgi?sstr=3608727",
    "absolute_magnitude_h": 25.2,
    "estimated_diameter": {
        "kilometers": {
            "estimated_diameter_min": 0.0242412481,
            "estimated_diameter_max": 0.0542050786
        },
        "meters": {
            "estimated_diameter_min": 24.2412481101,
            "estimated_diameter_max": 54.2050786336
        },
        "miles": {
            "estimated_diameter_min": 0.0150628086,
            "estimated_diameter_max": 0.0336814639
        },
        "feet": {
            "estimated_diameter_min": 79.5316564495,
            "estimated_diameter_max": 177.8381901842
        }
    },
    "is_potentially_hazardous_asteroid": false,
    "close_approach_data": [
        {
            "close_approach_date": "2012-09-06",
            "close_approach_date_full": "2012-Sep-06 17:29",
            "epoch_date_close_approach": 1346952540000,
            "relative_velocity": {
                "kilometers_per_second": "9.5641471186",
                "kilometers_per_hour": "34430.9296270247",
                "miles_per_hour": "21394.0406896365"
            },
            "miss_distance": {
                "astronomical": "0.0499790994",
                "lunar": "19.4418696666",
                "kilometers": "7476766.814758278",
                "miles": "4645847.4678811164"
            },
            "orbiting_body": "Earth"
        }
    ],
    "orbital_data": {
        "orbit_id": "7",
        "orbit_determination_date": "2017-04-06 08:48:57",
        "first_observation_date": "2012-09-16",
        "last_observation_date": "2012-09-21",
        "data_arc_in_days": 5,
        "observations_used": 45,
        "orbit_uncertainty": "8",
        "minimum_orbit_intersection": ".0290431",
        "jupiter_tisserand_invariant": "3.641",
        "epoch_osculation": "2456188.5",
        "eccentricity": ".5009472818730579",
        "semi_major_axis": "2.024754359448698",
        "inclination": "7.32738259522811",
        "ascending_node_longitude": "346.3069346733775",
        "orbital_period": "1052.342089822474",
        "perihelion_distance": "1.010459166622248",
        "perihelion_argument": "331.4081670937614",
        "aphelion_distance": "3.039049552275147",
        "perihelion_time": "2456156.083364270870",
        "mean_anomaly": "11.08953920531248",
        "mean_motion": ".342094080890303",
        "equinox": "J2000",
        "orbit_class": {
            "orbit_class_type": "APO",
            "orbit_class_description": "Near-Earth asteroid orbits which cross the Earth’s orbit similar to that of 1862 Apollo",
            "orbit_class_range": "a (semi-major axis) > 1.0 AU; q (perihelion) < 1.017 AU"
        }
    },
    "is_sentry_object": false
}